NORAD_CAT_ID,OBJECT_NAME,OBJECT_TYPE,EPOCH,MEAN_MOTION,ECCENTRICITY,INCLINATION,RA_OF_ASC_NODE,ARG_OF_PERICENTER,MEAN_ANOMALY,BSTAR,MEAN_MOTION_DOT,MEAN_MOTION_DDOT,TLE_LINE0,TLE_LINE1,TLE_LINE2,SEMIMAJOR_AXIS,PERIOD,APOGEE,PERIGEE,DECAYED
53409.0,STARLINK-4490,PAYLOAD,2022-09-06 06:00:00,15.73152184,9.36e-05,53.2183,114.1608,100.7701,224.1441,-0.00051485,-0.00072109,0.0,0 STARLINK-4490,1 53409U 22097X   22249.25001157 -.00072109  00000-0 -51485-3 0  9998,2 53409  53.2183 114.1608 0000936 100.7701 224.1441 15.73152184  4683,6728.031999999997,91.536,350.526,349.267,0.0
53409.0,STARLINK-4490,PAYLOAD,2022-09-06 14:00:01,15.73077064,0.0001200999999999,53.2187,112.51,110.632,303.1274,0.00043204,0.00060129,0.0,0 STARLINK-4490,1 53409U 22097X   22249.58334491  .00060129  00000-0  43204-3 0  9991,2 53409  53.2187 112.5100 0001201 110.6320 303.1274 15.73077064  1300,6728.246,91.54,350.9190000000001,349.30300000000005,0.0
53409.0,STARLINK-4490,PAYLOAD,2022-09-06 20:00:01,15.73132813,0.0001115,53.2187,111.2748,102.5437,287.8303,0.00013902,0.00018879,0.0,0 STARLINK-4490,1 53409U 22097X   22249.83334491  .00018879  00000-0  13902-3 0  9996,2 53409  53.2187 111.2748 0001115 102.5437 287.8303 15.73132813  4776,6728.087,91.537,350.702,349.202,0.0
53409.0,STARLINK-4490,PAYLOAD,2022-09-06 22:00:00,15.73122821,0.0001097999999999,53.2187,110.8629,97.9425,44.64100000000001,0.00029811,0.00041285,0.0,0 STARLINK-4490,1 53409U 22097X   22249.91667824  .00041285  00000-0  29811-3 0  9997,2 53409  53.2187 110.8629 0001098  97.9425  44.6410 15.73122821  1305,6728.115,91.538,350.719,349.241,0.0
53409.0,STARLINK-4490,PAYLOAD,2022-09-07 14:00:01,15.73186605,0.0001082999999999,53.2186,107.5626,109.3311,211.0031,0.00058347,0.00082021,0.0,0 STARLINK-4490,1 53409U 22097X   22250.58334491  .00082021  00000-0  58347-3 0  9992,2 53409  53.2186 107.5626 0001083 109.3311 211.0031 15.73186605  4896,6727.933000000001,91.534,350.527,349.07,0.0
53409.0,STARLINK-4490,PAYLOAD,2022-09-07 22:00:00,15.73260325,0.0001103,53.2181,105.914,94.6725,314.6057,-0.00047269,-0.00066605,0.0,0 STARLINK-4490,1 53409U 22097X   22250.91667824 -.00066605  00000-0 -47269-3 0  9991,2 53409  53.2181 105.9140 0001103  94.6725 314.6057 15.73260325  1305,6727.723000000001,91.53,350.33,348.846,0.0
53409.0,STARLINK-4490,PAYLOAD,2022-09-08 06:00:00,15.73242042,0.0001072999999999,53.2178,104.2649,99.7889,38.4386,-0.0001929,-0.00027651,0.0,0 STARLINK-4490,1 53409U 22097X   22251.25001157 -.00027651  00000-0 -19290-3 0  9991,2 53409  53.2178 104.2649 0001073  99.7889  38.4386 15.73242042  5003,6727.775,91.531,350.362,348.918,0.0
53409.0,STARLINK-4490,PAYLOAD,2022-09-08 14:00:01,15.73177672,0.0001052,53.2181,102.6142,110.9493,116.2265,0.00023696,0.00032733,0.0,0 STARLINK-4490,1 53409U 22097X   22251.58334491  .00032733  00000-0  23696-3 0  9997,2 53409  53.2181 102.6142 0001052 110.9493 116.2265 15.73177672  1307,6727.959,91.534,350.532,349.116,0.0
53409.0,STARLINK-4490,PAYLOAD,2022-09-08 22:00:00,15.73231065,9.74e-05,53.2181,100.9668,94.5518,221.5648,-0.0003112,-0.00044122,0.0,0 STARLINK-4490,1 53409U 22097X   22251.91667824 -.00044122  00000-0 -31120-3 0  9991,2 53409  53.2181 100.9668 0000974  94.5518 221.5648 15.73231065  1300,6727.807,91.531,350.327,349.016,0.0
53409.0,STARLINK-4490,PAYLOAD,2022-09-09 14:00:01,15.73246981,0.0001184,53.2179,97.6659,103.5101,30.4845,-0.00036126,-0.00051114,0.0,0 STARLINK-4490,1 53409U 22097X   22252.58334491 -.00051114  00000-0 -36126-3 0  9996,2 53409  53.2179  97.6659 0001184 103.5101  30.4845 15.73246981  1301,6727.761,91.53,350.423,348.83,0.0
53409.0,STARLINK-4490,PAYLOAD,2022-09-09 22:00:00,15.73213443,0.0001155,53.2174,96.0169,88.6191,134.3394,-0.00040864,-0.0005761,0.0,0 STARLINK-4490,1 53409U 22097X   22252.91667824 -.00057610  00000-0 -40864-3 0  9993,2 53409  53.2174  96.0169 0001155  88.6191 134.3394 15.73213443  1305,6727.857,91.532,350.499,348.945,0.0
53409.0,STARLINK-4490,PAYLOAD,2022-09-10 14:00:01,15.73165052,0.0001125,53.2173,92.7171,103.2084,297.6104,0.00044981,0.00062886,0.0,0 STARLINK-4490,1 53409U 22097X   22253.58334491  .00062886  00000-0  44981-3 0  9991,2 53409  53.2173  92.7171 0001125 103.2084 297.6104 15.73165052  5366,6727.995,91.535,350.617,349.103,0.0
53409.0,STARLINK-4490,PAYLOAD,2022-09-10 20:00:01,15.73231751,9.940000000000004e-05,53.2173,91.4804,91.0385,286.4548,-0.00056317,-0.00079022,0.0,0 STARLINK-4490,1 53409U 22097X   22253.83334491 -.00079022  00000-0 -56317-3 0  9997,2 53409  53.2173  91.4804 0000994  91.0385 286.4548 15.73231751  5409,6727.805,91.531,350.338,349.001,0.0
53409.0,STARLINK-4490,PAYLOAD,2022-09-10 22:00:00,15.73196583,9.02e-05,53.2174,91.0697,86.9324,42.7895,-0.00022194,-0.00031644,0.0,0 STARLINK-4490,1 53409U 22097X   22253.91667824 -.00031644  00000-0 -22194-3 0  9999,2 53409  53.2174  91.0697 0000902  86.9324  42.7895 15.73196583  1307,6727.905,91.533,350.37699999999984,349.163,0.0
53409.0,STARLINK-4490,PAYLOAD,2022-09-11 06:00:00,15.73182454,6.97e-05,53.2174,89.4188,92.5683,126.062,0.00015642,0.00021372,0.0,0 STARLINK-4490,1 53409U 22097X   22254.25001157  .00021372  00000-0  15642-3 0  9993,2 53409  53.2174  89.4188 0000697  92.5683 126.0620 15.73182454  5471,6727.945,91.534,350.279,349.341,0.0
53409.0,STARLINK-4490,PAYLOAD,2022-09-11 14:00:01,15.7325592,0.0001335,53.2174,87.7686,96.0344,211.591,-0.00040115,-0.00056675,0.0,0 STARLINK-4490,1 53409U 22097X   22254.58334491 -.00056675  00000-0 -40115-3 0  9998,2 53409  53.2174  87.7686 0001335  96.0344 211.5910 15.73255920  1307,6727.736,91.53,350.499,348.70300000000015,0.0
53409.0,STARLINK-4490,PAYLOAD,2022-09-11 22:00:00,15.73203504,0.0001302,53.217,86.12100000000002,84.8169,311.7845,-0.00033743,-0.00047715,0.0,0 STARLINK-4490,1 53409U 22097X   22254.91667824 -.00047715  00000-0 -33743-3 0  9998,2 53409  53.2170  86.1210 0001302  84.8169 311.7845 15.73203504  1304,6727.885,91.533,350.626,348.874,0.0
53409.0,STARLINK-4490,PAYLOAD,2022-09-12 06:00:00,15.73212047,9.75e-05,53.2168,84.4698,90.5421,34.9884,-0.00022105,-0.00031541,0.0,0 STARLINK-4490,1 53409U 22097X   22255.25001157 -.00031541  00000-0 -22105-3 0  9997,2 53409  53.2168  84.4698 0000975  90.5421  34.9884 15.73212047  5631,6727.861,91.532,350.38199999999995,349.07,0.0
53409.0,STARLINK-4490,PAYLOAD,2022-09-12 14:00:01,15.73180113,8.89e-05,53.2171,82.8199,97.1216,117.341,0.00040841,0.00057038,0.0,0 STARLINK-4490,1 53409U 22097X   22255.58334491  .00057038  00000-0  40841-3 0  9997,2 53409  53.2171  82.8199 0000889  97.1216 117.3410 15.73180113  1301,6727.9519999999975,91.534,350.415,349.219,0.0
53409.0,STARLINK-4490,PAYLOAD,2022-09-12 22:00:00,15.73196124,0.0001189999999999,53.2173,81.1724,79.1618,224.2386,4.2297e-05,5.319e-05,0.0,0 STARLINK-4490,1 53409U 22097X   22255.91667824  .00005319  00000-0  42297-4 0  9996,2 53409  53.2173  81.1724 0001190  79.1618 224.2386 15.73196124  5731,6727.906,91.533,350.57199999999995,348.971,0.0
53409.0,STARLINK-4490,PAYLOAD,2022-09-13 14:00:01,15.73196052,0.0001183,53.2174,77.8716,86.3788,34.8765,0.0003762,0.00052498,0.0,0 STARLINK-4490,1 53409U 22097X   22256.58334491  .00052498  00000-0  37620-3 0  9994,2 53409  53.2174  77.8716 0001183  86.3788  34.8765 15.73196052  1300,6727.906,91.533,350.56699999999995,348.976,0.0
53409.0,STARLINK-4490,PAYLOAD,2022-09-13 22:00:00,15.73207911,0.0001185,53.217,76.2216,71.1296,139.0523,-0.00013558,-0.00019609,0.0,0 STARLINK-4490,1 53409U 22097X   22256.91667824 -.00019609  00000-0 -13558-3 0  9993,2 53409  53.2170  76.2216 0001185  71.1296 139.0523 15.73207911  1309,6727.873000000001,91.533,350.535,348.94,0.0
53409.0,STARLINK-4490,PAYLOAD,2022-09-14 06:00:00,15.73177982,0.0001049,53.217,74.5727,80.8403,218.2806,-0.00024522,-0.00034858,0.0,0 STARLINK-4490,1 53409U 22097X   22257.25001157 -.00034858  00000-0 -24522-3 0  9998,2 53409  53.2170  74.5727 0001049  80.8403 218.2806 15.73177982  5945,6727.958000000001,91.534,350.529,349.117,0.0
53409.0,STARLINK-4490,PAYLOAD,2022-09-14 14:00:01,15.73182043,0.0001129,53.2173,72.9234,82.3361,305.6669,0.00028249,0.0003918,0.0,0 STARLINK-4490,1 53409U 22097X   22257.58334491  .00039180  00000-0  28249-3 0  9995,2 53409  53.2173  72.9234 0001129  82.3361 305.6669 15.73182043  5999,6727.946,91.534,350.571,349.052,0.0
53409.0,STARLINK-4490,PAYLOAD,2022-09-14 22:00:00,15.73209149,0.000123,53.2175,71.2758,67.5919,49.334,0.00017948,0.00024652,0.0,0 STARLINK-4490,1 53409U 22097X   22257.91667824  .00024652  00000-0  17948-3 0  9993,2 53409  53.2175  71.2758 0001230  67.5919  49.3340 15.73209149  1307,6727.869000000002,91.533,350.56199999999984,348.907,0.0
53409.0,STARLINK-4490,PAYLOAD,2022-09-15 06:00:00,15.73186928,0.0001286,53.2177,69.6244,74.5096,131.3747,0.00047636,0.00066729,0.0,0 STARLINK-4490,1 53409U 22097X   22258.25001157  .00066729  00000-0  47636-3 0  9990,2 53409  53.2177  69.6244 0001286  74.5096 131.3747 15.73186928  6100,6727.932,91.534,350.663,348.932,0.0
53409.0,STARLINK-4490,PAYLOAD,2022-09-15 14:00:01,15.73251335,0.0001501999999999,53.2177,67.9753,76.3032,218.5224,-0.0003908,-0.00055229,0.0,0 STARLINK-4490,1 53409U 22097X   22258.58334491 -.00055229  00000-0 -39080-3 0  9995,2 53409  53.2177  67.9753 0001502  76.3032 218.5224 15.73251335  1307,6727.749,91.53,350.624,348.603,0.0
53409.0,STARLINK-4490,PAYLOAD,2022-09-15 22:00:00,15.73223227,0.0001531999999999,53.2171,66.3275,66.1233,317.6657,5.8606e-05,7.62e-05,0.0,0 STARLINK-4490,1 53409U 22097X   22258.91667824  .00007620  00000-0  58606-4 0  9997,2 53409  53.2171  66.3275 0001532  66.1233 317.6657 15.73223227  1306,6727.829000000002,91.532,350.725,348.663,0.0
53409.0,STARLINK-4490,PAYLOAD,2022-09-16 02:00:01,15.73235535,0.00014,53.2169,65.5018,67.9218,180.3375,-0.00033254,-0.000471,0.0,0 STARLINK-4490,1 53409U 22097X   22259.08334491 -.00047100  00000-0 -33254-3 0  9997,2 53409  53.2169  65.5018 0001400  67.9218 180.3375 15.73235535  6239,6727.794,91.531,350.601,348.717,0.0
